CORAL                   
1 67685U 98067YB  26042.62777105  .00046083  00000+0  81305-3 0  9991
2 67685  51.6306 201.1261 0012733  97.5927 262.6509 15.49836283   743
ISS OBJECT YC           
1 67686U 98067YC  26042.62744778  .00050665  00000+0  89044-3 0  9991
2 67686  51.6310 201.1247 0007775  73.6798 286.5046 15.49959251   746
LEOPARD                 
1 67687U 98067YD  26042.62795018  .00045329  00000+0  80285-3 0  9994
2 67687  51.6307 201.1270 0007854  75.3633 284.8226 15.49787740   668
ISS OBJECT YE           
1 67688U 98067YE  26042.62754114  .00049349  00000+0  86921-3 0  9996
2 67688  51.6309 201.1248 0007746  74.2001 285.9842 15.49908969   667
PRC TEST SPACECRAFT 4   
1 67689U 26024A   26042.58050035  .00006304  00000+0  13144-3 0  9998
2 67689  49.9876 145.4703 0177621 166.6418 193.9333 15.31920509   681
CZ-2F R/B               
1 67690U 26024B   26042.70847628  .00009923  00000+0  19173-3 0  9994
2 67690  49.9870 144.7968 0177378 167.1370 193.4201 15.33172352   703
CZ-2F DEB               
1 67691U 26024C   26042.57059824  .00625497  10241-4  92014-3 0  9991
2 67691  49.9102 144.6771 0272638 172.5808 187.9325 15.61289070   683
CZ-2F DEB               
1 67692U 26024D   26040.51445789  .01037071  10166-4  16463-3 0  9999
2 67692  50.3761 155.8636 0347659 202.7642 155.7595 15.62132248   365
CZ-2F DEB               
1 67718U 26024E   26042.24191064  .00305991  00000+0  63801-2 0  9990
2 67718  50.3160 147.6010 0271960 176.1221 184.1930 15.13514752   617
CZ-2F DEB               
1 67719U 26024F   26042.69310399  .00218736  00000+0  57343-2 0  9998
2 67719  49.7905 146.2465 0342006 167.3665 193.6121 14.95071873   348
CZ-2F DEB               
1 67720U 26024G   26042.70119442  .00215325  00000+0  57873-2 0  9997
2 67720  49.8303 146.2752 0352772 164.1614 197.0701 14.92419239   668
