CCSDS_OMM_VERS = 2.0
CREATION_DATE  = 
ORIGINATOR     = 

OBJECT_NAME    = CORAL
OBJECT_ID      = 1998-067YB
CENTER_NAME    = EARTH
REF_FRAME      = TEME
TIME_SYSTEM    = UTC
MEAN_ELEMENT_THEORY = SGP/SGP4

EPOCH          = 2026-02-11T15:03:59.418720
MEAN_MOTION    = 15.49836283
ECCENTRICITY   = .00127339
INCLINATION    = 51.6306
RA_OF_ASC_NODE = 201.1261
ARG_OF_PERICENTER = 97.5927
MEAN_ANOMALY   = 262.6509

EPHEMERIS_TYPE = 0
CLASSIFICATION_TYPE = U
NORAD_CAT_ID   = 67685
ELEMENT_SET_NO = 999
REV_AT_EPOCH   = 74
BSTAR          = .81304768E-3
MEAN_MOTION_DOT = .46083E-3
MEAN_MOTION_DDOT = 0

CCSDS_OMM_VERS = 2.0
CREATION_DATE  = 
ORIGINATOR     = 

OBJECT_NAME    = ISS OBJECT YC
OBJECT_ID      = 1998-067YC
CENTER_NAME    = EARTH
REF_FRAME      = TEME
TIME_SYSTEM    = UTC
MEAN_ELEMENT_THEORY = SGP/SGP4

EPOCH          = 2026-02-11T15:03:31.488192
MEAN_MOTION    = 15.49959251
ECCENTRICITY   = .00077757
INCLINATION    = 51.6310
RA_OF_ASC_NODE = 201.1247
ARG_OF_PERICENTER = 73.6798
MEAN_ANOMALY   = 286.5046

EPHEMERIS_TYPE = 0
CLASSIFICATION_TYPE = U
NORAD_CAT_ID   = 67686
ELEMENT_SET_NO = 999
REV_AT_EPOCH   = 74
BSTAR          = .89043817E-3
MEAN_MOTION_DOT = .50665E-3
MEAN_MOTION_DDOT = 0

CCSDS_OMM_VERS = 2.0
CREATION_DATE  = 
ORIGINATOR     = 

OBJECT_NAME    = LEOPARD
OBJECT_ID      = 1998-067YD
CENTER_NAME    = EARTH
REF_FRAME      = TEME
TIME_SYSTEM    = UTC
MEAN_ELEMENT_THEORY = SGP/SGP4

EPOCH          = 2026-02-11T15:04:14.895552
MEAN_MOTION    = 15.49787740
ECCENTRICITY   = .00078547
INCLINATION    = 51.6307
RA_OF_ASC_NODE = 201.1270
ARG_OF_PERICENTER = 75.3633
MEAN_ANOMALY   = 284.8226

EPHEMERIS_TYPE = 0
CLASSIFICATION_TYPE = U
NORAD_CAT_ID   = 67687
ELEMENT_SET_NO = 999
REV_AT_EPOCH   = 66
BSTAR          = .80285161E-3
MEAN_MOTION_DOT = .45329E-3
MEAN_MOTION_DDOT = 0

CCSDS_OMM_VERS = 2.0
CREATION_DATE  = 
ORIGINATOR     = 

OBJECT_NAME    = ISS OBJECT YE
OBJECT_ID      = 1998-067YE
CENTER_NAME    = EARTH
REF_FRAME      = TEME
TIME_SYSTEM    = UTC
MEAN_ELEMENT_THEORY = SGP/SGP4

EPOCH          = 2026-02-11T15:03:39.554496
MEAN_MOTION    = 15.49908969
ECCENTRICITY   = .00077464
INCLINATION    = 51.6309
RA_OF_ASC_NODE = 201.1248
ARG_OF_PERICENTER = 74.2001
MEAN_ANOMALY   = 285.9842

EPHEMERIS_TYPE = 0
CLASSIFICATION_TYPE = U
NORAD_CAT_ID   = 67688
ELEMENT_SET_NO = 999
REV_AT_EPOCH   = 66
BSTAR          = .86921332E-3
MEAN_MOTION_DOT = .49349E-3
MEAN_MOTION_DDOT = 0

CCSDS_OMM_VERS = 2.0
CREATION_DATE  = 
ORIGINATOR     = 

OBJECT_NAME    = PRC TEST SPACECRAFT 4
OBJECT_ID      = 2026-024A
CENTER_NAME    = EARTH
REF_FRAME      = TEME
TIME_SYSTEM    = UTC
MEAN_ELEMENT_THEORY = SGP/SGP4

EPOCH          = 2026-02-11T13:55:55.230240
MEAN_MOTION    = 15.31920509
ECCENTRICITY   = .01776218
INCLINATION    = 49.9876
RA_OF_ASC_NODE = 145.4703
ARG_OF_PERICENTER = 166.6418
MEAN_ANOMALY   = 193.9333

EPHEMERIS_TYPE = 0
CLASSIFICATION_TYPE = U
NORAD_CAT_ID   = 67689
ELEMENT_SET_NO = 999
REV_AT_EPOCH   = 68
BSTAR          = .13143832E-3
MEAN_MOTION_DOT = .6304E-4
MEAN_MOTION_DDOT = 0

CCSDS_OMM_VERS = 2.0
CREATION_DATE  = 
ORIGINATOR     = 

OBJECT_NAME    = CZ-2F R/B
OBJECT_ID      = 2026-024B
CENTER_NAME    = EARTH
REF_FRAME      = TEME
TIME_SYSTEM    = UTC
MEAN_ELEMENT_THEORY = SGP/SGP4

EPOCH          = 2026-02-11T17:00:12.350592
MEAN_MOTION    = 15.33172352
ECCENTRICITY   = .0177378
INCLINATION    = 49.9870
RA_OF_ASC_NODE = 144.7968
ARG_OF_PERICENTER = 167.1370
MEAN_ANOMALY   = 193.4201

EPHEMERIS_TYPE = 0
CLASSIFICATION_TYPE = U
NORAD_CAT_ID   = 67690
ELEMENT_SET_NO = 999
REV_AT_EPOCH   = 70
BSTAR          = .19173E-3
MEAN_MOTION_DOT = .9923E-4
MEAN_MOTION_DDOT = 0

CCSDS_OMM_VERS = 2.0
CREATION_DATE  = 
ORIGINATOR     = 

OBJECT_NAME    = CZ-2F DEB
OBJECT_ID      = 2026-024C
CENTER_NAME    = EARTH
REF_FRAME      = TEME
TIME_SYSTEM    = UTC
MEAN_ELEMENT_THEORY = SGP/SGP4

EPOCH          = 2026-02-11T13:41:39.687936
MEAN_MOTION    = 15.61289070
ECCENTRICITY   = .0272638
INCLINATION    = 49.9102
RA_OF_ASC_NODE = 144.6771
ARG_OF_PERICENTER = 172.5808
MEAN_ANOMALY   = 187.9325

EPHEMERIS_TYPE = 0
CLASSIFICATION_TYPE = U
NORAD_CAT_ID   = 67691
ELEMENT_SET_NO = 999
REV_AT_EPOCH   = 68
BSTAR          = .92014066E-3
MEAN_MOTION_DOT = .625497E-2
MEAN_MOTION_DDOT = .10240976E-4

CCSDS_OMM_VERS = 2.0
CREATION_DATE  = 
ORIGINATOR     = 

OBJECT_NAME    = CZ-2F DEB
OBJECT_ID      = 2026-024D
CENTER_NAME    = EARTH
REF_FRAME      = TEME
TIME_SYSTEM    = UTC
MEAN_ELEMENT_THEORY = SGP/SGP4

EPOCH          = 2026-02-09T12:20:49.161696
MEAN_MOTION    = 15.62132248
ECCENTRICITY   = .03476599
INCLINATION    = 50.3761
RA_OF_ASC_NODE = 155.8636
ARG_OF_PERICENTER = 202.7642
MEAN_ANOMALY   = 155.7595

EPHEMERIS_TYPE = 0
CLASSIFICATION_TYPE = U
NORAD_CAT_ID   = 67692
ELEMENT_SET_NO = 999
REV_AT_EPOCH   = 36
BSTAR          = .16462978E-3
MEAN_MOTION_DOT = .1037071E-1
MEAN_MOTION_DDOT = .10166112E-4

CCSDS_OMM_VERS = 2.0
CREATION_DATE  = 
ORIGINATOR     = 

OBJECT_NAME    = CZ-2F DEB
OBJECT_ID      = 2026-024E
CENTER_NAME    = EARTH
REF_FRAME      = TEME
TIME_SYSTEM    = UTC
MEAN_ELEMENT_THEORY = SGP/SGP4

EPOCH          = 2026-02-11T05:48:21.079296
MEAN_MOTION    = 15.13514752
ECCENTRICITY   = .02719607
INCLINATION    = 50.3160
RA_OF_ASC_NODE = 147.6010
ARG_OF_PERICENTER = 176.1221
MEAN_ANOMALY   = 184.1930

EPHEMERIS_TYPE = 0
CLASSIFICATION_TYPE = U
NORAD_CAT_ID   = 67718
ELEMENT_SET_NO = 999
REV_AT_EPOCH   = 61
BSTAR          = .63800979E-2
MEAN_MOTION_DOT = .305991E-2
MEAN_MOTION_DDOT = 0

CCSDS_OMM_VERS = 2.0
CREATION_DATE  = 
ORIGINATOR     = 

OBJECT_NAME    = CZ-2F DEB
OBJECT_ID      = 2026-024F
CENTER_NAME    = EARTH
REF_FRAME      = TEME
TIME_SYSTEM    = UTC
MEAN_ELEMENT_THEORY = SGP/SGP4

EPOCH          = 2026-02-11T16:38:04.184736
MEAN_MOTION    = 14.95071873
ECCENTRICITY   = .0342006
INCLINATION    = 49.7905
RA_OF_ASC_NODE = 146.2465
ARG_OF_PERICENTER = 167.3665
MEAN_ANOMALY   = 193.6121

EPHEMERIS_TYPE = 0
CLASSIFICATION_TYPE = U
NORAD_CAT_ID   = 67719
ELEMENT_SET_NO = 999
REV_AT_EPOCH   = 34
BSTAR          = .57343E-2
MEAN_MOTION_DOT = .218736E-2
MEAN_MOTION_DDOT = 0

CCSDS_OMM_VERS = 2.0
CREATION_DATE  = 
ORIGINATOR     = 

OBJECT_NAME    = CZ-2F DEB
OBJECT_ID      = 2026-024G
CENTER_NAME    = EARTH
REF_FRAME      = TEME
TIME_SYSTEM    = UTC
MEAN_ELEMENT_THEORY = SGP/SGP4

EPOCH          = 2026-02-11T16:49:43.197888
MEAN_MOTION    = 14.92419239
ECCENTRICITY   = .0352772
INCLINATION    = 49.8303
RA_OF_ASC_NODE = 146.2752
ARG_OF_PERICENTER = 164.1614
MEAN_ANOMALY   = 197.0701

EPHEMERIS_TYPE = 0
CLASSIFICATION_TYPE = U
NORAD_CAT_ID   = 67720
ELEMENT_SET_NO = 999
REV_AT_EPOCH   = 66
BSTAR          = .57873E-2
MEAN_MOTION_DOT = .215325E-2
MEAN_MOTION_DDOT = 0

